O3B FM5                 
1 39188U 13031A   25063.33520636 -.00000019  00000+0  00000+0 0  9990
2 39188   0.0546 341.0791 0002714   7.0924  11.8177  5.00115212213522
O3B FM2                 
1 39190U 13031C   25062.48295159 -.00000017  00000+0  00000+0 0  9995
2 39190   0.0444  17.9379 0002671 327.5925  14.4576  5.00115681213562
O3B PFM                 
1 39191U 13031D   25063.30797779 -.00000019  00000+0  00000+0 0  9995
2 39191   0.0516 350.2734 0002686 352.9211  16.7922  5.00115133213165
O3B FM3                 
1 40079U 14038A   25063.36291319 -.00000019  00000+0  00000+0 0  9995
2 40079   0.0461   2.0521 0004861 323.3606  34.5512  5.00114788189546
O3B FM7                 
1 40080U 14038B   25063.30906003 -.00000019  00000+0  00000+0 0  9994
2 40080   0.0422   4.6850 0002060  23.2751 332.0465  5.00115293194376
O3B FM6                 
1 40081U 14038C   25063.33615972 -.00000019  00000+0  00000+0 0  9990
2 40081   0.0466   2.9988 0002781 341.7060  15.2824  5.00115505194318
O3B FM8                 
1 40082U 14038D   25063.38961473 -.00000019  00000+0  00000+0 0  9996
2 40082   0.0457   3.4537 0002667 337.6766  18.8554  5.00115636194443
O3B FM10                
1 40348U 14083A   25060.21781977 -.00000015  00000+0  00000+0 0  9995
2 40348   0.0533 355.5451 0002695 342.1796  22.2592  5.00114514186226
O3B FM11                
1 40349U 14083B   25059.43143995 -.00000015  00000+0  00000+0 0  9990
2 40349   0.0492 352.4008 0002677   2.7199   4.8721  5.00115588186212
O3B FM12                
1 40350U 14083C   25063.25662063 -.00000019  00000+0  00000+0 0  9993
2 40350   0.0492 353.6707 0002849 352.9660  13.3514  5.00115725186417
O3B FM9                 
1 40351U 14083D   25062.68367439 -.00000017  00000+0  00000+0 0  9997
2 40351   0.0485 351.5346 0002658 352.9411  15.5119  5.00115405186531
LEO 1 (LEO VANTAGE 1)   
1 43113U 18004C   25064.50649508  .00004616  00000+0  33192-3 0  9996
2 43113  99.2929 276.9442 0364633  73.4944 290.5983 14.64102785368814
O3B FM15                
1 43231U 18024A   25061.35100925 -.00000016  00000+0  00000+0 0  9993
2 43231   0.0560 357.2806 0003023 346.2094  16.4959  5.00115251127423
O3B FM16                
1 43232U 18024B   25063.40248334 -.00000019  00000+0  00000+0 0  9992
2 43232   0.0602 358.0602 0002995 348.0343  13.8928  5.00115554127432
O3B FM14                
1 43233U 18024C   25063.44301038 -.00000019  00000+0  00000+0 0  9998
2 43233   0.0608 359.4485 0002779 343.4749  17.0628  5.00115180127698
O3B FM13                
1 43234U 18024D   25055.90046087 -.00000016  00000+0  00000+0 0  9998
2 43234   0.0449 326.2729 0003511  13.9713  19.7377  5.00115330127181
O3B FM20                
1 44112U 19020A   25063.66890939 -.00000019  00000+0  00000+0 0  9999
2 44112   0.0528 356.4560 0003217 355.1453   8.3888  5.00115170108089
O3B FM19                
1 44113U 19020B   25055.50068721 -.00000016  00000+0  00000+0 0  9997
2 44113   0.0343 340.2308 0001808  24.8096 354.9571  5.00115336107546
O3B FM17                
1 44114U 19020C   25063.17633268 -.00000018  00000+0  00000+0 0  9996
2 44114   0.0612  14.5484 0003123 330.5360  14.9020  5.00115036108017
O3B FM18                
1 44115U 19020D   25063.32242519 -.00000019  00000+0  00000+0 0  9990
2 44115   0.0528 356.0240 0002919 347.3997  16.5623  5.00114998108138
SALSAT                  
1 46495U 20068K   25064.48310135  .00013644  00000+0  62751-3 0  9997
2 46495  97.8521  38.2754 0013789 128.6364 231.6107 15.20390462243910
O3B MPOWER F1           
1 54755U 22174A   25063.41967698 -.00000019  00000+0  00000+0 0  9997
2 54755   0.0382 359.4685 0005247 328.4235  68.1856  5.00116681 41856
O3B MPOWER F2           
1 54756U 22174B   25063.33324431 -.00000019  00000+0  00000+0 0  9991
2 54756   0.0383   5.3656 0005841 336.8200  17.7894  5.00116425 41924
O3B MPOWER F4           
1 56367U 23059A   25063.43275180 -.00000019  00000+0  00000+0 0  9991
2 56367   0.0500 343.4175 0004587 346.6389  29.9129  5.00117314 35051
O3B MPOWER F3           
1 56368U 23059B   25064.29916582 -.00000021  00000+0  00000+0 0  9998
2 56368   0.0511 342.7255 0006350   0.1861  17.0622  5.00116631 31279
